KUIPER-00053            
1 64513U 25134P   25217.12458740  .00027307  00000+0  75541-3 0  9995
2 64513  51.8780 124.9713 0001556 247.7209 112.3612 15.36806481  7347
KUIPER-00054            
1 64514U 25134Q   25216.15461740  .00029284  00000+0  81740-3 0  9996
2 64514  51.8770 129.7157 0002758 240.8564 119.2147 15.36488138  7653
KUIPER-00055            
1 64515U 25134R   25217.04741546  .00032055  00000+0  87283-3 0  9999
2 64515  51.8779 125.2062 0000453 233.7979 126.2966 15.37214671  7646
KUIPER-00056            
1 64516U 25134S   25216.74622724  .00037255  00000+0  10424-2 0  9991
2 64516  51.8745 126.9258 0004811 266.9187  93.1249 15.36286403  7744
KUIPER-00057            
1 64517U 25134T   25217.03079677  .00029061  00000+0  85137-3 0  9998
2 64517  51.8697 125.8138 0006413 259.4370 100.5893 15.34963108  7433
KUIPER-00058            
1 64518U 25134U   25216.75552415  .00015816  00000+0  45408-3 0  9993
2 64518  51.8723 126.9808 0004568 257.1705 102.8770 15.36003132  7743
KUIPER-00059            
1 64519U 25134V   25217.17959002  .00038514  00000+0  10498-2 0  9994
2 64519  51.8780 124.5896 0001448 196.0746 164.0195 15.37093410  7344
KUIPER-00060            
1 64520U 25134W   25217.12047692  .00039450  00000+0  10803-2 0  9994
2 64520  51.8774 124.9447 0001701 201.5806 158.5109 15.36938124  7348
