<?xml version="1.0" encoding="UTF-8"?>
<ndm xmlns:xsi="http://www.w3.org/2001/XMLSchema-instance" xsi:noNamespaceSchemaLocation="https://sanaregistry.org/r/ndmxml_unqualified/ndmxml-2.0.0-master-2.0.xsd">
<omm id="CCSDS_OMM_VERS" version="2.0">
<header><CREATION_DATE/><ORIGINATOR/></header><body><segment><metadata><OBJECT_NAME>KUIPER-00053</OBJECT_NAME><OBJECT_ID>2025-134P</OBJECT_ID><CENTER_NAME>EARTH</CENTER_NAME><REF_FRAME>TEME</REF_FRAME><TIME_SYSTEM>UTC</TIME_SYSTEM><MEAN_ELEMENT_THEORY>SGP4</MEAN_ELEMENT_THEORY></metadata><data><meanElements><EPOCH>2025-08-05T02:59:24.351360</EPOCH><MEAN_MOTION>15.36806481</MEAN_MOTION><ECCENTRICITY>.0001556</ECCENTRICITY><INCLINATION>51.8780</INCLINATION><RA_OF_ASC_NODE>124.9713</RA_OF_ASC_NODE><ARG_OF_PERICENTER>247.7209</ARG_OF_PERICENTER><MEAN_ANOMALY>112.3612</MEAN_ANOMALY></meanElements><tleParameters><EPHEMERIS_TYPE>0</EPHEMERIS_TYPE><CLASSIFICATION_TYPE>U</CLASSIFICATION_TYPE><NORAD_CAT_ID>64513</NORAD_CAT_ID><ELEMENT_SET_NO>999</ELEMENT_SET_NO><REV_AT_EPOCH>734</REV_AT_EPOCH><BSTAR>.75541E-3</BSTAR><MEAN_MOTION_DOT>.27307E-3</MEAN_MOTION_DOT><MEAN_MOTION_DDOT>0</MEAN_MOTION_DDOT></tleParameters></data></segment></body></omm>
<omm id="CCSDS_OMM_VERS" version="2.0">
<header><CREATION_DATE/><ORIGINATOR/></header><body><segment><metadata><OBJECT_NAME>KUIPER-00054</OBJECT_NAME><OBJECT_ID>2025-134Q</OBJECT_ID><CENTER_NAME>EARTH</CENTER_NAME><REF_FRAME>TEME</REF_FRAME><TIME_SYSTEM>UTC</TIME_SYSTEM><MEAN_ELEMENT_THEORY>SGP4</MEAN_ELEMENT_THEORY></metadata><data><meanElements><EPOCH>2025-08-04T03:42:38.943360</EPOCH><MEAN_MOTION>15.36488138</MEAN_MOTION><ECCENTRICITY>.0002758</ECCENTRICITY><INCLINATION>51.8770</INCLINATION><RA_OF_ASC_NODE>129.7157</RA_OF_ASC_NODE><ARG_OF_PERICENTER>240.8564</ARG_OF_PERICENTER><MEAN_ANOMALY>119.2147</MEAN_ANOMALY></meanElements><tleParameters><EPHEMERIS_TYPE>0</EPHEMERIS_TYPE><CLASSIFICATION_TYPE>U</CLASSIFICATION_TYPE><NORAD_CAT_ID>64514</NORAD_CAT_ID><ELEMENT_SET_NO>999</ELEMENT_SET_NO><REV_AT_EPOCH>765</REV_AT_EPOCH><BSTAR>.8174E-3</BSTAR><MEAN_MOTION_DOT>.29284E-3</MEAN_MOTION_DOT><MEAN_MOTION_DDOT>0</MEAN_MOTION_DDOT></tleParameters></data></segment></body></omm>
<omm id="CCSDS_OMM_VERS" version="2.0">
<header><CREATION_DATE/><ORIGINATOR/></header><body><segment><metadata><OBJECT_NAME>KUIPER-00055</OBJECT_NAME><OBJECT_ID>2025-134R</OBJECT_ID><CENTER_NAME>EARTH</CENTER_NAME><REF_FRAME>TEME</REF_FRAME><TIME_SYSTEM>UTC</TIME_SYSTEM><MEAN_ELEMENT_THEORY>SGP4</MEAN_ELEMENT_THEORY></metadata><data><meanElements><EPOCH>2025-08-05T01:08:16.695744</EPOCH><MEAN_MOTION>15.37214671</MEAN_MOTION><ECCENTRICITY>.0000453</ECCENTRICITY><INCLINATION>51.8779</INCLINATION><RA_OF_ASC_NODE>125.2062</RA_OF_ASC_NODE><ARG_OF_PERICENTER>233.7979</ARG_OF_PERICENTER><MEAN_ANOMALY>126.2966</MEAN_ANOMALY></meanElements><tleParameters><EPHEMERIS_TYPE>0</EPHEMERIS_TYPE><CLASSIFICATION_TYPE>U</CLASSIFICATION_TYPE><NORAD_CAT_ID>64515</NORAD_CAT_ID><ELEMENT_SET_NO>999</ELEMENT_SET_NO><REV_AT_EPOCH>764</REV_AT_EPOCH><BSTAR>.87283E-3</BSTAR><MEAN_MOTION_DOT>.32055E-3</MEAN_MOTION_DOT><MEAN_MOTION_DDOT>0</MEAN_MOTION_DDOT></tleParameters></data></segment></body></omm>
<omm id="CCSDS_OMM_VERS" version="2.0">
<header><CREATION_DATE/><ORIGINATOR/></header><body><segment><metadata><OBJECT_NAME>KUIPER-00056</OBJECT_NAME><OBJECT_ID>2025-134S</OBJECT_ID><CENTER_NAME>EARTH</CENTER_NAME><REF_FRAME>TEME</REF_FRAME><TIME_SYSTEM>UTC</TIME_SYSTEM><MEAN_ELEMENT_THEORY>SGP4</MEAN_ELEMENT_THEORY></metadata><data><meanElements><EPOCH>2025-08-04T17:54:34.033536</EPOCH><MEAN_MOTION>15.36286403</MEAN_MOTION><ECCENTRICITY>.0004811</ECCENTRICITY><INCLINATION>51.8745</INCLINATION><RA_OF_ASC_NODE>126.9258</RA_OF_ASC_NODE><ARG_OF_PERICENTER>266.9187</ARG_OF_PERICENTER><MEAN_ANOMALY>93.1249</MEAN_ANOMALY></meanElements><tleParameters><EPHEMERIS_TYPE>0</EPHEMERIS_TYPE><CLASSIFICATION_TYPE>U</CLASSIFICATION_TYPE><NORAD_CAT_ID>64516</NORAD_CAT_ID><ELEMENT_SET_NO>999</ELEMENT_SET_NO><REV_AT_EPOCH>774</REV_AT_EPOCH><BSTAR>.10424E-2</BSTAR><MEAN_MOTION_DOT>.37255E-3</MEAN_MOTION_DOT><MEAN_MOTION_DDOT>0</MEAN_MOTION_DDOT></tleParameters></data></segment></body></omm>
<omm id="CCSDS_OMM_VERS" version="2.0">
<header><CREATION_DATE/><ORIGINATOR/></header><body><segment><metadata><OBJECT_NAME>KUIPER-00057</OBJECT_NAME><OBJECT_ID>2025-134T</OBJECT_ID><CENTER_NAME>EARTH</CENTER_NAME><REF_FRAME>TEME</REF_FRAME><TIME_SYSTEM>UTC</TIME_SYSTEM><MEAN_ELEMENT_THEORY>SGP4</MEAN_ELEMENT_THEORY></metadata><data><meanElements><EPOCH>2025-08-05T00:44:20.840928</EPOCH><MEAN_MOTION>15.34963108</MEAN_MOTION><ECCENTRICITY>.0006413</ECCENTRICITY><INCLINATION>51.8697</INCLINATION><RA_OF_ASC_NODE>125.8138</RA_OF_ASC_NODE><ARG_OF_PERICENTER>259.4370</ARG_OF_PERICENTER><MEAN_ANOMALY>100.5893</MEAN_ANOMALY></meanElements><tleParameters><EPHEMERIS_TYPE>0</EPHEMERIS_TYPE><CLASSIFICATION_TYPE>U</CLASSIFICATION_TYPE><NORAD_CAT_ID>64517</NORAD_CAT_ID><ELEMENT_SET_NO>999</ELEMENT_SET_NO><REV_AT_EPOCH>743</REV_AT_EPOCH><BSTAR>.85137E-3</BSTAR><MEAN_MOTION_DOT>.29061E-3</MEAN_MOTION_DOT><MEAN_MOTION_DDOT>0</MEAN_MOTION_DDOT></tleParameters></data></segment></body></omm>
<omm id="CCSDS_OMM_VERS" version="2.0">
<header><CREATION_DATE/><ORIGINATOR/></header><body><segment><metadata><OBJECT_NAME>KUIPER-00058</OBJECT_NAME><OBJECT_ID>2025-134U</OBJECT_ID><CENTER_NAME>EARTH</CENTER_NAME><REF_FRAME>TEME</REF_FRAME><TIME_SYSTEM>UTC</TIME_SYSTEM><MEAN_ELEMENT_THEORY>SGP4</MEAN_ELEMENT_THEORY></metadata><data><meanElements><EPOCH>2025-08-04T18:07:57.286560</EPOCH><MEAN_MOTION>15.36003132</MEAN_MOTION><ECCENTRICITY>.0004568</ECCENTRICITY><INCLINATION>51.8723</INCLINATION><RA_OF_ASC_NODE>126.9808</RA_OF_ASC_NODE><ARG_OF_PERICENTER>257.1705</ARG_OF_PERICENTER><MEAN_ANOMALY>102.8770</MEAN_ANOMALY></meanElements><tleParameters><EPHEMERIS_TYPE>0</EPHEMERIS_TYPE><CLASSIFICATION_TYPE>U</CLASSIFICATION_TYPE><NORAD_CAT_ID>64518</NORAD_CAT_ID><ELEMENT_SET_NO>999</ELEMENT_SET_NO><REV_AT_EPOCH>774</REV_AT_EPOCH><BSTAR>.45408E-3</BSTAR><MEAN_MOTION_DOT>.15816E-3</MEAN_MOTION_DOT><MEAN_MOTION_DDOT>0</MEAN_MOTION_DDOT></tleParameters></data></segment></body></omm>
<omm id="CCSDS_OMM_VERS" version="2.0">
<header><CREATION_DATE/><ORIGINATOR/></header><body><segment><metadata><OBJECT_NAME>KUIPER-00059</OBJECT_NAME><OBJECT_ID>2025-134V</OBJECT_ID><CENTER_NAME>EARTH</CENTER_NAME><REF_FRAME>TEME</REF_FRAME><TIME_SYSTEM>UTC</TIME_SYSTEM><MEAN_ELEMENT_THEORY>SGP4</MEAN_ELEMENT_THEORY></metadata><data><meanElements><EPOCH>2025-08-05T04:18:36.577728</EPOCH><MEAN_MOTION>15.37093410</MEAN_MOTION><ECCENTRICITY>.0001448</ECCENTRICITY><INCLINATION>51.8780</INCLINATION><RA_OF_ASC_NODE>124.5896</RA_OF_ASC_NODE><ARG_OF_PERICENTER>196.0746</ARG_OF_PERICENTER><MEAN_ANOMALY>164.0195</MEAN_ANOMALY></meanElements><tleParameters><EPHEMERIS_TYPE>0</EPHEMERIS_TYPE><CLASSIFICATION_TYPE>U</CLASSIFICATION_TYPE><NORAD_CAT_ID>64519</NORAD_CAT_ID><ELEMENT_SET_NO>999</ELEMENT_SET_NO><REV_AT_EPOCH>734</REV_AT_EPOCH><BSTAR>.10498E-2</BSTAR><MEAN_MOTION_DOT>.38514E-3</MEAN_MOTION_DOT><MEAN_MOTION_DDOT>0</MEAN_MOTION_DDOT></tleParameters></data></segment></body></omm>
<omm id="CCSDS_OMM_VERS" version="2.0">
<header><CREATION_DATE/><ORIGINATOR/></header><body><segment><metadata><OBJECT_NAME>KUIPER-00060</OBJECT_NAME><OBJECT_ID>2025-134W</OBJECT_ID><CENTER_NAME>EARTH</CENTER_NAME><REF_FRAME>TEME</REF_FRAME><TIME_SYSTEM>UTC</TIME_SYSTEM><MEAN_ELEMENT_THEORY>SGP4</MEAN_ELEMENT_THEORY></metadata><data><meanElements><EPOCH>2025-08-05T02:53:29.205888</EPOCH><MEAN_MOTION>15.36938124</MEAN_MOTION><ECCENTRICITY>.0001701</ECCENTRICITY><INCLINATION>51.8774</INCLINATION><RA_OF_ASC_NODE>124.9447</RA_OF_ASC_NODE><ARG_OF_PERICENTER>201.5806</ARG_OF_PERICENTER><MEAN_ANOMALY>158.5109</MEAN_ANOMALY></meanElements><tleParameters><EPHEMERIS_TYPE>0</EPHEMERIS_TYPE><CLASSIFICATION_TYPE>U</CLASSIFICATION_TYPE><NORAD_CAT_ID>64520</NORAD_CAT_ID><ELEMENT_SET_NO>999</ELEMENT_SET_NO><REV_AT_EPOCH>734</REV_AT_EPOCH><BSTAR>.10803E-2</BSTAR><MEAN_MOTION_DOT>.3945E-3</MEAN_MOTION_DOT><MEAN_MOTION_DDOT>0</MEAN_MOTION_DDOT></tleParameters></data></segment></body></omm>

</ndm>
